{
    "links": {
        "self": "http://www.neowsapp.com/rest/v1/neo/3795087?api_key=iIulBulltgU6a56xZRHN4H3l9WmuAYTsLGpBGhQ2"
    },
    "id": "3795087",
    "neo_reference_id": "3795087",
    "name": "(2017 YK5)",
    "designation": "2017 YK5",
    "nasa_jpl_url": "http://ssd.jpl.nasa.gov/sbdb.cgi?sstr=3795087",
    "absolute_magnitude_h": 24.1,
    "estimated_diameter": {
        "kilometers": {
            "estimated_diameter_min": 0.040230458,
            "estimated_diameter_max": 0.0899580388
        },
        "meters": {
            "estimated_diameter_min": 40.2304579834,
            "estimated_diameter_max": 89.9580388169
        },
        "miles": {
            "estimated_diameter_min": 0.0249980399,
            "estimated_diameter_max": 0.0558973165
        },
        "feet": {
            "estimated_diameter_min": 131.9896957704,
            "estimated_diameter_max": 295.1379320721
        }
    },
    "is_potentially_hazardous_asteroid": false,
    "close_approach_data": [
        {
            "close_approach_date": "2017-12-24",
            "close_approach_date_full": "2017-Dec-24 06:34",
            "epoch_date_close_approach": 1514097240000,
            "relative_velocity": {
                "kilometers_per_second": "13.1188129393",
                "kilometers_per_hour": "47227.7265813396",
                "miles_per_hour": "29345.4726638329"
            },
            "miss_distance": {
                "astronomical": "0.0352785973",
                "lunar": "13.7233743497",
                "kilometers": "5277603.012667751",
                "miles": "3279350.4465709238"
            },
            "orbiting_body": "Earth"
        }
    ],
    "orbital_data": {
        "orbit_id": "9",
        "orbit_determination_date": "2019-07-27 14:00:57",
        "first_observation_date": "2017-12-25",
        "last_observation_date": "2018-01-15",
        "data_arc_in_days": 21,
        "observations_used": 94,
        "orbit_uncertainty": "8",
        "minimum_orbit_intersection": ".0105479",
        "jupiter_tisserand_invariant": "3.118",
        "epoch_osculation": "2458126.5",
        "eccentricity": ".6461904103019485",
        "semi_major_axis": "2.533929112488546",
        "inclination": ".9348306024788112",
        "ascending_node_longitude": "45.86840288541459",
        "orbital_period": "1473.296369443745",
        "perihelion_distance": ".8965284196135203",
        "perihelion_argument": "2.597235067684228",
        "aphelion_distance": "4.171329805363571",
        "perihelion_time": "2458081.296961602468",
        "mean_anomaly": "11.04536341812582",
        "mean_motion": ".2443500218058101",
        "equinox": "J2000",
        "orbit_class": {
            "orbit_class_type": "APO",
            "orbit_class_description": "Near-Earth asteroid orbits which cross the Earth’s orbit similar to that of 1862 Apollo",
            "orbit_class_range": "a (semi-major axis) > 1.0 AU; q (perihelion) < 1.017 AU"
        }
    },
    "is_sentry_object": false
}